NORAD_CAT_ID,OBJECT_NAME,OBJECT_TYPE,EPOCH,MEAN_MOTION,ECCENTRICITY,INCLINATION,RA_OF_ASC_NODE,ARG_OF_PERICENTER,MEAN_ANOMALY,BSTAR,MEAN_MOTION_DOT,MEAN_MOTION_DDOT,TLE_LINE0,TLE_LINE1,TLE_LINE2,SEMIMAJOR_AXIS,PERIOD,APOGEE,PERIGEE,DECAYED
53035.0,STARLINK-4157,PAYLOAD,2024-07-12 12:20:59,15.0884105,0.0001115,53.2156,270.86,91.6268,268.4852,9.9932e-05,1.303e-05,0.0,0 STARLINK-4157,1 53035U 22076BB  24194.51457426  .00001303  00000-0  99932-4 0  9990,2 53035  53.2156 270.8600 0001115  91.6268 268.4852 15.08841050111766,6917.877,95.437,540.514,538.971,0.0
53035.0,STARLINK-4157,PAYLOAD,2024-07-12 21:53:17,15.08849739,0.0001082,53.2155,269.0762,89.3799,270.7317,0.00019501,2.818e-05,0.0,0 STARLINK-4157,1 53035U 22076BB  24194.91200864  .00002818  00000-0  19501-3 0  9991,2 53035  53.2155 269.0762 0001082  89.3799 270.7317 15.08849739111821,6917.851,95.437,540.464,538.967,0.0
53035.0,STARLINK-4157,PAYLOAD,2024-07-13 12:11:46,15.08836762,0.0001321,53.2155,266.3992,76.9827,283.1312,1.1512e-06,-2.7e-06,0.0,0 STARLINK-4157,1 53035U 22076BB  24195.50817708 -.00000270  00000-0  11512-5 0  9995,2 53035  53.2155 266.3992 0001321  76.9827 283.1312 15.08836762112372,6917.89,95.438,540.669,538.841,0.0
53035.0,STARLINK-4157,PAYLOAD,2024-07-13 13:47:09,15.08837967,0.0001387,53.2154,266.1019,78.8082,281.3066,1.8553e-05,7e-08,0.0,0 STARLINK-4157,1 53035U 22076BB  24195.57441673  .00000007  00000-0  18553-4 0  9994,2 53035  53.2154 266.1019 0001387  78.8082 281.3066 15.08837967111929,6917.887,95.438,540.711,538.792,0.0
53035.0,STARLINK-4157,PAYLOAD,2024-07-13 21:44:05,15.08844608,0.0001311,53.2157,264.6156,81.7,278.414,0.00011435,1.533e-05,0.0,0 STARLINK-4157,1 53035U 22076BB  24195.90561358  .00001533  00000-0  11435-3 0  9990,2 53035  53.2157 264.6156 0001311  81.7000 278.4140 15.08844608111972,6917.866,95.437,540.638,538.824,0.0
53035.0,STARLINK-4157,PAYLOAD,2024-07-14 12:02:33,15.0883843,0.0001471,53.2157,261.9381,83.3083,276.8077,8.8669e-05,1.123e-05,0.0,0 STARLINK-4157,1 53035U 22076BB  24196.50177883  .00001123  00000-0  88669-4 0  9992,2 53035  53.2157 261.9381 0001471  83.3083 276.8077 15.08838430112527,6917.885,95.438,540.768,538.733,0.0
53035.0,STARLINK-4157,PAYLOAD,2024-07-14 13:37:56,15.08839677,0.0001449,53.2152,261.6408,86.6611,273.4546,0.00010717,1.418e-05,0.0,0 STARLINK-4157,1 53035U 22076BB  24196.56801964  .00001418  00000-0  10717-3 0  9997,2 53035  53.2152 261.6408 0001449  86.6611 273.4546 15.08839677112075,6917.881,95.438,540.749,538.744,0.0
53035.0,STARLINK-4157,PAYLOAD,2024-07-14 21:34:51,15.08849957,0.0001402,53.2152,260.1544,80.0373,280.0777,0.00017747,2.538e-05,0.0,0 STARLINK-4157,1 53035U 22076BB  24196.89921239  .00002538  00000-0  17747-3 0  9995,2 53035  53.2152 260.1544 0001402  80.0373 280.0777 15.08849957112580,6917.85,95.437,540.685,538.745,0.0
53035.0,STARLINK-4157,PAYLOAD,2024-07-15 11:53:20,15.0884183,0.0001244,53.2146,257.477,88.3231,271.7903,0.00011446,1.534e-05,0.0,0 STARLINK-4157,1 53035U 22076BB  24197.49537692  .00001534  00000-0  11446-3 0  9993,2 53035  53.2146 257.4770 0001244  88.3231 271.7903 15.08841830112671,6917.875,95.437,540.6,538.879,0.0
53035.0,STARLINK-4157,PAYLOAD,2024-07-15 13:28:43,15.0884352,0.0001203,53.2147,257.1779,93.0941,267.0189,0.00013356,1.839e-05,0.0,0 STARLINK-4157,1 53035U 22076BB  24197.56161631  .00001839  00000-0  13356-3 0  9997,2 53035  53.2147 257.1779 0001203  93.0941 267.0189 15.08843520112227,6917.87,95.437,540.567,538.902,0.0
53035.0,STARLINK-4157,PAYLOAD,2024-07-15 21:25:39,15.08848622,0.0001157,53.2151,255.6937,94.6471,265.4653,0.00019563,2.828e-05,0.0,0 STARLINK-4157,1 53035U 22076BB  24197.89281284  .00002828  00000-0  19563-3 0  9995,2 53035  53.2151 255.6937 0001157  94.6471 265.4653 15.08848622112275,6917.854,95.437,540.519,538.919,0.0
53035.0,STARLINK-4157,PAYLOAD,2024-07-16 10:08:44,15.08842821,0.0001511,53.2168,253.3141,96.2879,263.8285,8.7441e-05,1.104e-05,0.0,0 STARLINK-4157,1 53035U 22076BB  24198.42273764  .00001104  00000-0  87441-4 0  9996,2 53035  53.2168 253.3141 0001511  96.2879 263.8285 15.08842821112356,6917.872,95.437,540.782,538.691,0.0
53035.0,STARLINK-4157,PAYLOAD,2024-07-17 03:37:58,15.0884477,0.0001513,53.215,250.0427,100.9779,259.1383,0.00018855,2.714e-05,0.0,0 STARLINK-4157,1 53035U 22076BB  24199.15137564  .00002714  00000-0  18855-3 0  9994,2 53035  53.2150 250.0427 0001513 100.9779 259.1383 15.08844770112927,6917.866,95.437,540.777,538.684,0.0
53035.0,STARLINK-4157,PAYLOAD,2024-07-17 09:59:31,15.08839403,0.0001222,53.2142,248.8555,81.1566,278.9565,9.8055e-05,1.273e-05,0.0,0 STARLINK-4157,1 53035U 22076BB  24199.41633877  .00001273  00000-0  98055-4 0  9991,2 53035  53.2142 248.8555 0001222  81.1566 278.9565 15.08839403112968,6917.882,95.438,540.593,538.902,0.0
53035.0,STARLINK-4157,PAYLOAD,2024-07-18 09:50:19,15.0882995,0.0001288,53.2151,244.3917,92.2736,267.8404,2.0729e-05,4.2e-07,0.0,0 STARLINK-4157,1 53035U 22076BB  24200.40994672  .00000042  00000-0  20729-4 0  9992,2 53035  53.2151 244.3917 0001288  92.2736 267.8404 15.08829950113118,6917.911,95.438,540.667,538.885,0.0
53035.0,STARLINK-4157,PAYLOAD,2024-07-19 09:41:06,15.08840048,0.0001273,53.2152,239.9317,82.8538,277.2599,7.0422e-05,8.33e-06,0.0,0 STARLINK-4157,1 53035U 22076BB  24201.40354203  .00000833  00000-0  70422-4 0  9996,2 53035  53.2152 239.9317 0001273  82.8538 277.2599 15.08840048113269,6917.88,95.438,540.626,538.865,0.0
53035.0,STARLINK-4157,PAYLOAD,2024-07-19 19:13:24,15.08845388,0.0001273,53.2153,238.1473,82.0461,278.0676,0.00011543,1.55e-05,0.0,0 STARLINK-4157,1 53035U 22076BB  24201.80097644  .00001550  00000-0  11543-3 0  9998,2 53035  53.2153 238.1473 0001273  82.0461 278.0676 15.08845388112863,6917.864,95.437,540.61,538.848,0.0
53035.0,STARLINK-4157,PAYLOAD,2024-07-20 03:10:20,15.08831198,0.0001458,53.2169,236.6641,93.5713,266.5446,0.00012795,1.748e-05,0.0,0 STARLINK-4157,1 53035U 22076BB  24202.13218603  .00001748  00000-0  12795-3 0  9994,2 53035  53.2169 236.6641 0001458  93.5713 266.5446 15.08831198113370,6917.907,95.438,540.781,538.764,0.0
53035.0,STARLINK-4157,PAYLOAD,2024-07-20 09:31:53,15.0883405,0.0001465,53.2168,235.475,94.7964,265.3196,0.00015018,2.103e-05,0.0,0 STARLINK-4157,1 53035U 22076BB  24202.39714578  .00002103  00000-0  15018-3 0  9991,2 53035  53.2168 235.4750 0001465  94.7964 265.3196 15.08834050112958,6917.899,95.438,540.777,538.75,0.0
53035.0,STARLINK-4157,PAYLOAD,2024-07-20 19:04:11,15.08846323,0.0001466,53.217,233.6909,94.802,265.314,0.00016855,2.396e-05,0.0,0 STARLINK-4157,1 53035U 22076BB  24202.79457814  .00002396  00000-0  16855-3 0  9996,2 53035  53.2170 233.6909 0001466  94.8020 265.3140 15.08846323113475,6917.861,95.437,540.74,538.712,0.0
53035.0,STARLINK-4157,PAYLOAD,2024-07-21 10:58:04,15.08832312,0.0001554,53.2168,230.7182,97.7403,262.3766,2.3671e-05,8.9e-07,0.0,0 STARLINK-4157,1 53035U 22076BB  24203.45699364  .00000089  00000-0  23671-4 0  9990,2 53035  53.2168 230.7182 0001554  97.7403 262.3766 15.08832312113573,6917.904,95.438,540.844,538.694,0.0
53035.0,STARLINK-4157,PAYLOAD,2024-07-22 09:13:27,15.08845805,0.0001406,53.2154,226.5522,88.9109,271.2044,0.00011923,1.61e-05,0.0,0 STARLINK-4157,1 53035U 22076BB  24204.38434488  .00001610  00000-0  11923-3 0  9994,2 53035  53.2154 226.5522 0001406  88.9109 271.2044 15.08845805113715,6917.863,95.437,540.7,538.755,0.0
53035.0,STARLINK-4157,PAYLOAD,2024-07-23 10:39:37,15.08847566,0.0001439,53.2144,221.7943,90.3054,269.8103,0.00026498,3.933e-05,0.0,0 STARLINK-4157,1 53035U 22076BB  24205.44418407  .00003933  00000-0  26498-3 0  9998,2 53035  53.2144 221.7943 0001439  90.3054 269.8103 15.08847566113872,6917.857,95.437,540.718,538.727,0.0
53035.0,STARLINK-4157,PAYLOAD,2024-07-24 05:44:15,15.08842579,0.0001488,53.2143,218.2247,90.3959,269.7203,4.8927e-05,4.91e-06,0.0,0 STARLINK-4157,1 53035U 22076BB  24206.23906529  .00000491  00000-0  48927-4 0  9991,2 53035  53.2143 218.2247 0001488  90.3959 269.7203 15.08842579113999,6917.873,95.437,540.767,538.708,0.0
53035.0,STARLINK-4157,PAYLOAD,2024-07-24 10:30:24,15.08839986,0.0001485,53.2146,217.3329,89.8882,270.2281,1.7695e-06,-2.6e-06,0.0,0 STARLINK-4157,1 53035U 22076BB  24206.43778631 -.00000260  00000-0  17695-5 0  9998,2 53035  53.2146 217.3329 0001485  89.8882 270.2281 15.08839986113562,6917.88,95.438,540.773,538.718,0.0
53035.0,STARLINK-4157,PAYLOAD,2024-07-25 05:35:02,15.08843415,0.0001486,53.2161,213.7642,93.5319,266.5844,5.6714e-05,6.15e-06,0.0,0 STARLINK-4157,1 53035U 22076BB  24207.23266416  .00000615  00000-0  56714-4 0  9997,2 53035  53.2161 213.7642 0001486  93.5319 266.5844 15.08843415113683,6917.87,95.437,540.763,538.707,0.0
53035.0,STARLINK-4157,PAYLOAD,2024-07-25 10:21:11,15.08846107,0.0001407,53.2156,212.8729,86.844,273.2713,3.6676e-05,2.96e-06,0.0,0 STARLINK-4157,1 53035U 22076BB  24207.43138270  .00000296  00000-0  36676-4 0  9995,2 53035  53.2156 212.8729 0001407  86.8440 273.2713 15.08846107114172,6917.862,95.437,540.7,538.753,0.0
53035.0,STARLINK-4157,PAYLOAD,2024-07-26 05:25:49,15.08834832,0.0001371,53.2154,209.3035,94.5121,265.6028,6.7002e-05,7.78e-06,0.0,0 STARLINK-4157,1 53035U 22076BB  24208.22626829  .00000778  00000-0  67002-4 0  9997,2 53035  53.2154 209.3035 0001371  94.5121 265.6028 15.08834832114292,6917.896,95.438,540.71,538.813,0.0
53035.0,STARLINK-4157,PAYLOAD,2024-07-26 07:01:12,15.08835105,0.0001362,53.2154,209.0062,91.9276,268.1872,6.4783e-05,7.43e-06,0.0,0 STARLINK-4157,1 53035U 22076BB  24208.29250828  .00000743  00000-0  64783-4 0  9991,2 53035  53.2154 209.0062 0001362  91.9276 268.1872 15.08835105113840,6917.895,95.438,540.703,538.818,0.0
53035.0,STARLINK-4157,PAYLOAD,2024-07-26 22:55:04,15.08837519,0.0001441,53.216,206.0326,93.0496,267.0661,4.7973e-05,4.76e-06,0.0,0 STARLINK-4157,1 53035U 22076BB  24208.95490828  .00000476  00000-0  47973-4 0  9995,2 53035  53.2160 206.0326 0001441  93.0496 267.0661 15.08837519113948,6917.888,95.438,540.75,538.756,0.0
